{
  "norad_id": 52297,
  "name": "STARLINK-3758",
  "history": [
    {
      "epoch": "2026-04-13T06:20:44.861568Z",
      "apogee_km": 540.6394816932961,
      "perigee_km": 538.8788771156369,
      "latitude_deg": 1.6376599156665136e-05,
      "longitude_deg": 7.263707326529669,
      "height_km": 540.6189223351367,
      "semi_major_axis_km": 6917.896179404466,
      "eccentricity": 0.00012725,
      "inclination_deg": 53.2159,
      "raan_deg": 303.9083,
      "arg_perigee_deg": 87.6613,
      "mean_anomaly_deg": 272.4525,
      "mean_motion_rev_day": 15.08834834
    },
    {
      "epoch": "2026-04-14T20:30:00.233568Z",
      "apogee_km": 540.6644995486913,
      "perigee_km": 538.8395604225825,
      "latitude_deg": 6.222153258836258e-05,
      "longitude_deg": 146.24655294435107,
      "height_km": 540.6256900913073,
      "semi_major_axis_km": 6917.889029985637,
      "eccentricity": 0.0001319,
      "inclination_deg": 53.2175,
      "raan_deg": 296.7721,
      "arg_perigee_deg": 88.6119,
      "mean_anomaly_deg": 271.5025,
      "mean_motion_rev_day": 15.08837173
    },
    {
      "epoch": "2026-04-15T18:45:23.929344Z",
      "apogee_km": 540.6446273270258,
      "perigee_km": 538.8362941587875,
      "latitude_deg": 1.1274181713388247e-05,
      "longitude_deg": 167.32043909865286,
      "height_km": 540.6155970430852,
      "semi_major_axis_km": 6917.877460742907,
      "eccentricity": 0.0001307,
      "inclination_deg": 53.2175,
      "raan_deg": 292.6088,
      "arg_perigee_deg": 88.6911,
      "mean_anomaly_deg": 271.4231,
      "mean_motion_rev_day": 15.08840958
    },
    {
      "epoch": "2026-04-16T18:36:10.979712Z",
      "apogee_km": 540.649484220141,
      "perigee_km": 538.8328494135349,
      "latitude_deg": 3.7093110925183466e-05,
      "longitude_deg": 164.1846800314345,
      "height_km": 540.6147068542559,
      "semi_major_axis_km": 6917.878166816838,
      "eccentricity": 0.0001313,
      "inclination_deg": 53.2174,
      "raan_deg": 288.1484,
      "arg_perigee_deg": 88.5978,
      "mean_anomaly_deg": 271.5165,
      "mean_motion_rev_day": 15.08840727
    },
    {
      "epoch": "2026-04-17T18:26:57.968736Z",
      "apogee_km": 540.6668939421788,
      "perigee_km": 538.8080610700736,
      "latitude_deg": -5.758449539341155e-06,
      "longitude_deg": 161.04852561799373,
      "height_km": 540.6475344963773,
      "semi_major_axis_km": 6917.874477506126,
      "eccentricity": 0.00013435,
      "inclination_deg": 53.2174,
      "raan_deg": 283.6874,
      "arg_perigee_deg": 90.8832,
      "mean_anomaly_deg": 269.2314,
      "mean_motion_rev_day": 15.08841934
    },
    {
      "epoch": "2026-04-18T15:06:58.970016Z",
      "apogee_km": 540.6594689579206,
      "perigee_km": 538.8372979479191,
      "latitude_deg": -3.688968768034345e-06,
      "longitude_deg": -153.67000584438128,
      "height_km": 540.6406382743163,
      "semi_major_axis_km": 6917.885383452919,
      "eccentricity": 0.0001317,
      "inclination_deg": 53.2174,
      "raan_deg": 279.8218,
      "arg_perigee_deg": 89.7792,
      "mean_anomaly_deg": 270.3351,
      "mean_motion_rev_day": 15.08838366
    },
    {
      "epoch": "2026-04-19T18:08:32.642304Z",
      "apogee_km": 540.7562654433532,
      "perigee_km": 538.7528440490987,
      "latitude_deg": -7.002642081360893e-05,
      "longitude_deg": 154.77102347244153,
      "height_km": 540.3807608295282,
      "semi_major_axis_km": 6917.891554746226,
      "eccentricity": 0.0001448,
      "inclination_deg": 53.217,
      "raan_deg": 274.7631,
      "arg_perigee_deg": 74.3974,
      "mean_anomaly_deg": 285.7177,
      "mean_motion_rev_day": 15.08836347
    },
    {
      "epoch": "2026-04-20T11:37:47.428608Z",
      "apogee_km": 540.6385612150661,
      "perigee_km": 538.8476604119787,
      "latitude_deg": 3.707819192362602e-05,
      "longitude_deg": -111.52619153731605,
      "height_km": 540.4118058840434,
      "semi_major_axis_km": 6917.880110813522,
      "eccentricity": 0.00012944,
      "inclination_deg": 53.2164,
      "raan_deg": 271.4956,
      "arg_perigee_deg": 75.3116,
      "mean_anomaly_deg": 284.802,
      "mean_motion_rev_day": 15.08840091
    },
    {
      "epoch": "2026-04-21T19:25:29.834112Z",
      "apogee_km": 540.7592440578574,
      "perigee_km": 538.7447547812262,
      "latitude_deg": -2.7060082263377688e-05,
      "longitude_deg": 124.29298903661525,
      "height_km": 540.5616471326816,
      "semi_major_axis_km": 6917.8889994195415,
      "eccentricity": 0.0001456,
      "inclination_deg": 53.2166,
      "raan_deg": 265.5473,
      "arg_perigee_deg": 85.1105,
      "mean_anomaly_deg": 275.0053,
      "mean_motion_rev_day": 15.08837183
    },
    {
      "epoch": "2026-04-22T17:40:53.942016Z",
      "apogee_km": 540.5522417344755,
      "perigee_km": 538.9445251713623,
      "latitude_deg": -1.1558051819147918e-05,
      "longitude_deg": 145.36459862244567,
      "height_km": 540.6076009419436,
      "semi_major_axis_km": 6917.885383452919,
      "eccentricity": 0.0001162,
      "inclination_deg": 53.2179,
      "raan_deg": 261.3834,
      "arg_perigee_deg": 87.3749,
      "mean_anomaly_deg": 272.7376,
      "mean_motion_rev_day": 15.08838366
    },
    {
      "epoch": "2026-04-23T03:13:12.732960Z",
      "apogee_km": 540.54024322041,
      "perigee_km": 538.9426283744478,
      "latitude_deg": -3.358227400096014e-05,
      "longitude_deg": 0.11025131708282236,
      "height_km": 540.6142982682992,
      "semi_major_axis_km": 6917.878435797429,
      "eccentricity": 0.00011547,
      "inclination_deg": 53.2196,
      "raan_deg": 259.5991,
      "arg_perigee_deg": 88.3238,
      "mean_anomaly_deg": 271.7886,
      "mean_motion_rev_day": 15.08840639
    },
    {
      "epoch": "2026-04-24T15:47:04.958592Z",
      "apogee_km": 540.5737801187524,
      "perigee_km": 538.9259394687497,
      "latitude_deg": 2.1557257902850945e-05,
      "longitude_deg": 163.3036324324888,
      "height_km": 540.5108745381748,
      "semi_major_axis_km": 6917.886859793751,
      "eccentricity": 0.0001191,
      "inclination_deg": 53.2175,
      "raan_deg": 252.7617,
      "arg_perigee_deg": 80.5727,
      "mean_anomaly_deg": 279.54,
      "mean_motion_rev_day": 15.08837883
    },
    {
      "epoch": "2026-04-25T14:02:28.903200Z",
      "apogee_km": 540.5897695062722,
      "perigee_km": 538.9073397393886,
      "latitude_deg": -3.181660125635678e-05,
      "longitude_deg": -175.6250249838117,
      "height_km": 540.6187448905123,
      "semi_major_axis_km": 6917.885554622831,
      "eccentricity": 0.0001216,
      "inclination_deg": 53.2168,
      "raan_deg": 248.5969,
      "arg_perigee_deg": 88.2523,
      "mean_anomaly_deg": 271.8608,
      "mean_motion_rev_day": 15.0883831
    },
    {
      "epoch": "2026-04-26T20:14:48.777504Z",
      "apogee_km": 540.5928114208582,
      "perigee_km": 538.9119026648841,
      "latitude_deg": -1.9375919096629665e-05,
      "longitude_deg": 84.4027784572587,
      "height_km": 540.6179530663948,
      "semi_major_axis_km": 6917.889357042871,
      "eccentricity": 0.00012149,
      "inclination_deg": 53.2167,
      "raan_deg": 242.948,
      "arg_perigee_deg": 87.9381,
      "mean_anomaly_deg": 272.175,
      "mean_motion_rev_day": 15.08837066
    },
    {
      "epoch": "2026-04-27T15:19:26.946912Z",
      "apogee_km": 540.6163278954355,
      "perigee_km": 538.9117570785675,
      "latitude_deg": -5.900931672161803e-05,
      "longitude_deg": 153.89273479152547,
      "height_km": 540.7381570014238,
      "semi_major_axis_km": 6917.901042487001,
      "eccentricity": 0.0001232,
      "inclination_deg": 53.2176,
      "raan_deg": 239.3805,
      "arg_perigee_deg": 95.2644,
      "mean_anomaly_deg": 264.8488,
      "mean_motion_rev_day": 15.08833243
    },
    {
      "epoch": "2026-04-28T16:45:37.206720Z",
      "apogee_km": 540.6812441564734,
      "perigee_km": 538.835549664579,
      "latitude_deg": -3.9219147757780917e-07,
      "longitude_deg": 126.54780303818642,
      "height_km": 540.654499581171,
      "semi_major_axis_km": 6917.895396910526,
      "eccentricity": 0.0001334,
      "inclination_deg": 53.2182,
      "raan_deg": 234.6229,
      "arg_perigee_deg": 90.0172,
      "mean_anomaly_deg": 270.0973,
      "mean_motion_rev_day": 15.0883509
    },
    {
      "epoch": "2026-04-29T15:01:01.057152Z",
      "apogee_km": 540.6223235551142,
      "perigee_km": 538.8651818439293,
      "latitude_deg": 5.494492006640032e-06,
      "longitude_deg": 147.61988387384142,
      "height_km": 540.5528013960765,
      "semi_major_axis_km": 6917.8807526995215,
      "eccentricity": 0.000127,
      "inclination_deg": 53.2177,
      "raan_deg": 230.4584,
      "arg_perigee_deg": 84.3286,
      "mean_anomaly_deg": 275.7851,
      "mean_motion_rev_day": 15.08839881
    },
    {
      "epoch": "2026-04-30T13:16:24.809088Z",
      "apogee_km": 540.6035985788931,
      "perigee_km": 538.8665209046922,
      "latitude_deg": 1.367675324297757e-05,
      "longitude_deg": 168.69457740324873,
      "height_km": 540.5217174730743,
      "semi_major_axis_km": 6917.872059741792,
      "eccentricity": 0.00012555,
      "inclination_deg": 53.2172,
      "raan_deg": 226.2961,
      "arg_perigee_deg": 82.7781,
      "mean_anomaly_deg": 277.3354,
      "mean_motion_rev_day": 15.08842725
    },
    {
      "epoch": "2026-05-02T09:47:12.770016Z",
      "apogee_km": 540.82904442379,
      "perigee_km": 538.6748138112625,
      "latitude_deg": 7.406499784044356e-05,
      "longitude_deg": -149.16051455805737,
      "height_km": 541.126686059715,
      "semi_major_axis_km": 6917.888929117526,
      "eccentricity": 0.0001557,
      "inclination_deg": 53.2188,
      "raan_deg": 217.9689,
      "arg_perigee_deg": 116.4028,
      "mean_anomaly_deg": 243.7125,
      "mean_motion_rev_day": 15.08837206
    }
  ]
}